QIANFAN-81              
1 63167U 25046J   25247.90996632  .00000208  00000+0  30322-3 0  9996
2 63167  88.9856 330.0745 0015857  53.9332 306.3285 13.50972140 34143
QIANFAN-82              
1 63168U 25046K   25247.86875605  .00000223  00000+0  32678-3 0  9991
2 63168  88.9856 330.1223 0014271  62.1919 298.0677 13.50969046 34129
QIANFAN-83              
1 63169U 25046L   25247.88499039  .00000279  00000+0  34680-3 0  9993
2 63169  88.9856 330.0907 0015281  53.0344 307.2210 13.61945886 34147
QIANFAN-84              
1 63170U 25046M   25247.89745366  .00000226  00000+0  33116-3 0  9998
2 63170  88.9857 330.2523 0017105  57.4657 302.8143 13.50975216 34052
QIANFAN-85              
1 63171U 25046N   25247.89354049  .00000233  00000+0  34149-3 0  9998
2 63171  88.9856 330.1249 0014577  60.9960 299.2650 13.50970111 34121
QIANFAN-86              
1 63172U 25046P   25247.90175857  .00000216  00000+0  31637-3 0  9999
2 63172  88.9858 329.9839 0012608  66.0131 294.2339 13.50970614 34201
QIANFAN-87              
1 63173U 25046Q   25247.87292028  .00000225  00000+0  32898-3 0  9996
2 63173  88.9854 330.1022 0013162  61.1158 299.1312 13.50967089 34136
QIANFAN-88              
1 63174U 25046R   25247.88940869  .00000237  00000+0  34780-3 0  9996
2 63174  88.9856 330.0526 0013764  67.9681 292.2931 13.50974522 34164
